`LEMD 171100Z 25012KT 9999 FEW030 SCT050 BKN090 15/08 Q1018`  


***

`LEBL 171100Z 18006KT 7000 SCT020 OVC050 13/10 Q1020`  


***

`LEVC 171100Z 31010KT 9999 FEW020 17/09 Q1012`  

***

`LEPA 171100Z 23015KT 9999 SCT025 BKN080 14/10 Q1015`  

***

`LEZL 171100Z 32005KT 8000 BKN015 OVC030 11/09 Q1013`  

***

`LEAS 171100Z 27018KT 6000 -RA SCT010 BKN025 09/08 Q1009`     

***

`LEGE 171100Z 09008KT 9999 FEW040 SCT100 16/05 Q1022`  

***

`LECO 171100Z 20012KT 4000 RA OVC010 10/09 Q1007`  

***

`LEJR 171100Z 15010KT 9999 SCT020 18/12 Q1016`  

***

`LEBL 171100Z 04006KT 3000 BR OVC005 08/07 Q1019`  

***

`LEMG 171100Z 20025G40KT 3000 TSRA BKN020CB OVC050 21/18 Q1006`  

***

`LEAL 171100Z 12020KT 2500 DU SCT030 BKN045 27/17 Q1003`  

***

`LEVT 171100Z 33018KT 4000 RASN BKN010 OVC020 02/00 Q1009`  

***

`LEIB 171100Z 09022KT 9999 +SHRA SCT015CB BKN035 19/13 Q1008`  

***

`LEAS 171100Z 26028G45KT 1500 +RA FG OVC003 06/05 Q0998`  

***
